url,title,address,latitude,longitude,category,status,is_solved
https://jarokelo.hu/bejelentesek/budapest/159360/mozgasserult-parkolo-jelzesenek-problemaja,Mozgássérült parkoló jelzésének problémája,"VIII. kerület, Józsefváros,  József krt. 28",47.494037750627754,19.071187601410543,Forgalomtechnika,Megoldott,False
https://jarokelo.hu/bejelentesek/budapest/159361/rongalt-automata-es-tabla-erzsebet-krt,Rongált automata és tábla - Erzsébet krt.,"VII. kerület, Erzsébetváros,  Erzsébet krt. 14. 2-em. 1",47.49913352445138,19.06961809837269,Graffiti,Megoldott,False
https://jarokelo.hu/bejelentesek/budapest/159363/firkalt-telefonfulke-erzsebet-krt,Firkált telefonfülke - Erzsébet krt.,"VII. kerület, Erzsébetváros,  Erzsébet krt. 29",47.50111592886253,19.068362824548064,Graffiti,Megoldott,False
https://jarokelo.hu/bejelentesek/budapest/159364/borzaszto-utszakasz-terez-krt,Borzasztó útszakasz - Teréz krt.,"VI. kerület, Terézváros,  Teréz krt. 24",47.506404225105946,19.061629119058736,Kátyú,Megoldásra vár,False
https://jarokelo.hu/bejelentesek/budapest/159366/hianyos-fedlap,Hiányos fedlap,"VIII. kerület, Józsefváros,  József krt. 18",47.49471153563604,19.071190968363208,Közművek,Megoldott,False
https://jarokelo.hu/bejelentesek/budapest/159368/undorito-telefonfulke,Undorító telefonfülke,"VIII. kerület, Józsefváros,  József krt. 14",47.495035928579355,19.071088373868605,Graffiti,Megoldott,False
https://jarokelo.hu/bejelentesek/budapest/159369/katyus-ut-kerepesi,Kátyús út - Kerepesi,"VIII. kerület, Józsefváros,  Kerepesi út 16",47.49968228842001,19.098017099273317,Kátyú,Megoldásra vár,False
https://jarokelo.hu/bejelentesek/budapest/159370/kidolt-csokorlatok-kerepesi,Kidőlt csőkorlátok - Kerepesi,"VIII. kerület, Józsefváros,  Kerepesi út 6",47.49972762248988,19.08818410350282,Forgalomtechnika,Megerősítésre vár,False
https://jarokelo.hu/bejelentesek/budapest/159371/osszetort-kerites-hajogyar,Összetört kerítés - Hajógyár,"III. kerület, Óbuda-Békásmegyer,  Hajógyár u. 27",47.54251204828998,19.04690083472629,Forgalomtechnika,Megoldott,False
https://jarokelo.hu/bejelentesek/budapest/159372/gondozatlan-terulet,Gondozatlan terület,"III. kerület, Óbuda-Békásmegyer,  Árpád fejedelem útja 107",47.533223277989784,19.044029504876068,Parkok és zöldterületek,Megoldatlan,False
https://jarokelo.hu/bejelentesek/budapest/159373/firkas-atrozsdasodott-szekreny,"Firkás, átrozsdásodott szekrény","III. kerület, Óbuda-Békásmegyer,  Tímár utca",47.53446148481063,19.045194254120457,Forgalomtechnika,Megoldott,False
https://jarokelo.hu/bejelentesek/budapest/159085/graffiti-a-hidon,Graffiti a hídon,"III. kerület, Óbuda-Békásmegyer,  Szentlélek tér H",47.53918618048152,19.04739443807701,Graffiti,Megerősítésre vár,False
https://jarokelo.hu/bejelentesek/budapest/159087/firkalt-telefonfulke,Firkált telefonfülke,"VII. kerület, Erzsébetváros,  Erzsébet krt. 36",47.501147243392104,19.067873770223056,Graffiti,Megoldott,False
https://jarokelo.hu/bejelentesek/budapest/159089/uthibak-a-hidon,Úthibák a hídon,"XIII. kerület,  Margitsziget / Margit híd",47.514191956553,19.044925810296903,Kátyú,Megoldásra vár,False
https://jarokelo.hu/bejelentesek/budapest/159091/levalaszto-poller-kidontve,Leválasztó poller kidöntve,"V. kerület, Belváros-Lipótváros,  Szemere u. 26",47.511589309018206,19.052156571087426,Forgalomtechnika,Megoldott,False
https://jarokelo.hu/bejelentesek/budapest/159093/levelhegyek-es-szemet,Levélhegyek és szemét,"VIII. kerület, Józsefváros,  József krt. 12",47.49488052829627,19.070731640111667,Köztisztaság,Megoldott,False
https://jarokelo.hu/bejelentesek/budapest/159096/giga-betontomb-es-lyuk,Giga betontömb és lyuk,"III. kerület, Óbuda-Békásmegyer,  10 29",47.544726994707595,19.035254992439658,Kátyú,Megerősítésre vár,False
https://jarokelo.hu/bejelentesek/budapest/159098/szemet-es-levelhegyek,Szemét és levélhegyek,"III. kerület, Óbuda-Békásmegyer,  Kiscelli u. 11",47.53899845729562,19.03500111568115,Köztisztaság,Megoldott,False
https://jarokelo.hu/bejelentesek/budapest/159099/katyus-ut,Kátyús út,"III. kerület, Óbuda-Békásmegyer,  Kiscelli u. 20",47.53912430270641,19.036213473789456,Kátyú,Megerősítésre vár,False
https://jarokelo.hu/bejelentesek/budapest/159100/elkopott-tabla,Elkopott tábla,"III. kerület, Óbuda-Békásmegyer,  Óbuda",47.55058391403613,19.041896893524022,Forgalomtechnika,Megerősítésre vár,False
https://jarokelo.hu/bejelentesek/budapest/161152/lom,Lom,"XI. kerület, Újbuda,  Bártfai u. 50",47.466243,19.035645,Köztisztaság,Megoldott,False
https://jarokelo.hu/bejelentesek/budapest/161057/fedel-nelkuli-vizkozmu,Fedél nélküli vízközmű,"XI. kerület, Újbuda,  Kilátópont",47.486637,19.0490621,Közművek,Válaszra vár,False
https://jarokelo.hu/bejelentesek/budapest/160748/kerekparut-csatlakozas-nem-megfelelo,Kerékpárút-csatlakozás nem megfelelő,"III. kerület, Óbuda-Békásmegyer,  Evező u. 1",47.5280891,19.0402267,Forgalomtechnika,Megoldatlan,False
https://jarokelo.hu/bejelentesek/budapest/160665/borzasztoan-rossz-allapotu-ut-rona-u,Borzasztóan rossz állapotú út - Róna u.,"XIV. kerület, Zugló,  Róna u. 11",47.50309969237529,19.124770061071008,Kátyú,Megoldatlan,False
https://jarokelo.hu/bejelentesek/budapest/160666/elfordult-megdolt-tabla,"Elfordult, megdőlt tábla","II. kerület,  Árpád fejedelem útja 29",47.524327030921235,19.038844711642945,Forgalomtechnika,Megerősítésre vár,False
https://jarokelo.hu/bejelentesek/budapest/160667/kijart-mocsaras-zoldfelulet,"Kijárt, mocsaras zöldfelület","III. kerület, Óbuda-Békásmegyer,  Pók utca",47.56519204752912,19.058790016637943,Parkok és zöldterületek,Megoldásra vár,False
https://jarokelo.hu/bejelentesek/budapest/160669/uthiba-a-fedlap-korul,Úthiba a fedlap körül,"I. kerület, Várkerület,  Bem rkp. 22",47.504375740250254,19.039373193872063,Kátyú,Megoldásra vár,False
https://jarokelo.hu/bejelentesek/budapest/160670/egyenetlen-hullamos-ut,"Egyenetlen, hullámos út","I. kerület, Várkerület,  Bem rkp. 25a",47.50480335236702,19.03930613867501,Kátyú,Megoldásra vár,False
https://jarokelo.hu/bejelentesek/budapest/160672/elkepeszto-uthiba,Elképesztő úthiba,"XIII. kerület,  Róbert Károly körút 27",47.53269192482457,19.06702831971305,Kátyú,Megoldásra vár,False
https://jarokelo.hu/bejelentesek/budapest/160673/omladozo-terulet,Omladozó terület,"I. kerület, Várkerület,  Déli pályaudvar M",47.50027817764749,19.025523724859667,Járda,Megoldásra vár,False
https://jarokelo.hu/bejelentesek/budapest/160676/rozsdas-oszlopok,Rozsdás oszlopok,"I. kerület, Várkerület,  Krisztina krt. 39",47.50019210450844,19.025852295468365,Egyéb,Megerősítésre vár,False
https://jarokelo.hu/bejelentesek/budapest/160679/graffitis-szekreny,Graffitis szekrény,"I. kerület, Várkerület,  Batthyány tér 4",47.50640070322307,19.038310368604428,Graffiti,Megoldott,False
https://jarokelo.hu/bejelentesek/budapest/160680/levalaszto-poller-kidontve,Leválasztó poller kidöntve,"VIII. kerület, Józsefváros,  Üllői út 52",47.48483856710851,19.073003874045636,Forgalomtechnika,Megoldott,False
https://jarokelo.hu/bejelentesek/budapest/160629/uthiba-a-fedlap-korul,Úthiba a fedlap körül,"III. kerület, Óbuda-Békásmegyer,  Nánási út 61",47.572283043220416,19.06190655426137,Kátyú,Megoldatlan,False
https://jarokelo.hu/bejelentesek/budapest/160630/gyanus-jarmu,Gyanús jármű,"III. kerület, Óbuda-Békásmegyer,  Nánási út 25",47.56848460146961,19.06167454320903,Elhagyott jármű,Megoldott,False
https://jarokelo.hu/bejelentesek/budapest/160631/beszakado-ut-a-lefolyo-korul,Beszakadó út a lefolyó körül,"III. kerület, Óbuda-Békásmegyer,  Slachta Margit rkp. 972",47.538780577321546,19.047324700880285,Kátyú,Megoldásra vár,False
https://jarokelo.hu/bejelentesek/budapest/160632/rengeteg-szemet,Rengeteg szemét,"XI. kerület, Újbuda,  Irinyi József u. 2",47.47698540838936,19.060174073681594,Köztisztaság,Megoldott,False
https://jarokelo.hu/bejelentesek/budapest/160633/fedlapsullyedes,Fedlapsüllyedés,"III. kerület, Óbuda-Békásmegyer,  Mozaik u. 24",47.552797423451075,19.048031424658582,Közművek,Megerősítésre vár,False
https://jarokelo.hu/bejelentesek/budapest/160634/katyu-a-lefolyo-mellett,Kátyú a lefolyó mellett,"III. kerület, Óbuda-Békásmegyer,  Nagyszombat u. 1-A",47.531925908913315,19.04357991437946,Kátyú,Megerősítésre vár,False
https://jarokelo.hu/bejelentesek/budapest/160635/hianyos-fedlap,Hiányos fedlap,"III. kerület, Óbuda-Békásmegyer,  Óbuda",47.550324131392046,19.042006864096248,Közművek,Megoldásra vár,False
https://jarokelo.hu/bejelentesek/budapest/160636/firkas-megalloepulet,Firkás megállóépület,"III. kerület, Óbuda-Békásmegyer,  Óbuda",47.55059025018219,19.04199613526106,Graffiti,Megerősítésre vár,False
https://jarokelo.hu/bejelentesek/budapest/160637/veszelyes-uthiba,Veszélyes úthiba,"II. kerület,  Csalogány u. 1",47.50771836976188,19.039300853939395,Kátyú,Megoldásra vár,False
https://jarokelo.hu/bejelentesek/budapest/160638/petofi-hid-budai-hidfoje-graffitis,Petőfi híd budai hídfője graffitis,"XI. kerület, Újbuda,  Petőfi híd 1",47.477545581710814,19.060257222151908,Graffiti,Megerősítésre vár,False
https://jarokelo.hu/bejelentesek/budapest/159831/elfordult-tabla,Elfordult tábla,"XIV. kerület, Zugló,  Nagybecskerek u. 13",47.51924582583071,19.108275346953107,Forgalomtechnika,Megerősítésre vár,False
https://jarokelo.hu/bejelentesek/budapest/159832/egyenetlen-katyus-utszakasz,"Egyenetlen, kátyús útszakasz","XIV. kerület, Zugló,  Bácskai u. 39b",47.5180421302288,19.106644563848217,Kátyú,Megerősítésre vár,False
https://jarokelo.hu/bejelentesek/budapest/159833/rongalt-telefonfulke,Rongált telefonfülke,"XIV. kerület, Zugló,  Bácskai u. 36",47.51778762070059,19.106038384623808,Graffiti,Megoldott,False
https://jarokelo.hu/bejelentesek/budapest/159834/elfogadhatatlan-allapotu-forgalmas-utszakasz,"Elfogadhatatlan állapotú, forgalmas útszakasz","XIV. kerület, Zugló,  Kerepesi út 40",47.500562917843304,19.111272356810748,Kátyú,Megoldásra vár,False
https://jarokelo.hu/bejelentesek/budapest/159836/firkas-feluljaro,Firkás felüljáró,"III. kerület, Óbuda-Békásmegyer,  Árpád fejedelem útja 125",47.533286505468844,19.044213401053735,Graffiti,Válaszra vár,False
https://jarokelo.hu/bejelentesek/budapest/159837/firkalt-torott-tablak,"Firkált, törött táblák","III. kerület, Óbuda-Békásmegyer,  Tímár utca H",47.5326888968218,19.043782235969022,Forgalomtechnika,Megerősítésre vár,False
https://jarokelo.hu/bejelentesek/budapest/159838/rossz-allapotu-jarda,Rossz állapotú járda,"II. kerület,  Fő u. 47",47.50781213072756,19.038560564184923,Járda,Megerősítésre vár,False
https://jarokelo.hu/bejelentesek/budapest/159842/gondozatlan-park,Gondozatlan park,"I. kerület, Várkerület,  Kagyló u. 2b",47.50646775457451,19.034165764702692,Parkok és zöldterületek,Megerősítésre vár,False
https://jarokelo.hu/bejelentesek/budapest/159843/rossz-allapotu-parkoloautomata,Rossz állapotú parkolóautomata,"I. kerület, Várkerület,  Toldy Ferenc u. 27",47.506488137892795,19.033954540759925,Parkolás,Megerősítésre vár,False
https://jarokelo.hu/bejelentesek/budapest/159844/megdolt-tabla,Megdőlt tábla,"I. kerület, Várkerület,  Kapás u. 2",47.50715761226647,19.032324428217787,Forgalomtechnika,Megerősítésre vár,False
https://jarokelo.hu/bejelentesek/budapest/159845/szemet-a-parkban,Szemét a parkban,"III. kerület, Óbuda-Békásmegyer,  Árpád fejedelem útja 79",47.532412437579865,19.043295070303774,Köztisztaság,Megoldott,False
https://jarokelo.hu/bejelentesek/budapest/159846/gyanus-reklam,Gyanús reklám,"II. kerület,  Bem József u. 20",47.511705918521386,19.035729939576473,Egyéb,Megoldott,False
https://jarokelo.hu/bejelentesek/budapest/159848/elallo-fedlap,Elálló fedlap,"II. kerület,  Medve utca",47.50759188977886,19.035324744602182,Forgalomtechnika,Megoldott,False
https://jarokelo.hu/bejelentesek/budapest/159633/jardan-parkolas,Járdán parkolás,"VIII. kerület, Józsefváros,  Üllői út 102",47.47611232,19.09825049,Parkolás,Megoldott,False
https://jarokelo.hu/bejelentesek/budapest/159440/ujabb-graffitik-az-aluljaroban,Újabb graffitik az aluljáróban,"III. kerület, Óbuda-Békásmegyer,  Raktár utca",47.5453847,19.042732,Graffiti,Válaszra vár,False
https://jarokelo.hu/bejelentesek/budapest/159443/utcai-telefonfulke-helyreallitasa-vagy-leszerelese-elszallitasa,"Utcai telefonfülke helyreállítása vagy leszerelése, elszállítása","III. kerület, Óbuda-Békásmegyer,  Lajos u. 130",47.5360619,19.0438134,Közművek,Megerősítésre vár,False
https://jarokelo.hu/bejelentesek/budapest/159447/leszakadt-faag-elszallittatasa,Leszakadt faág elszállíttatása,"III. kerület, Óbuda-Békásmegyer,  Lajos u. 150",47.5366247,19.0445269,Köztisztaság,Megoldott,False
https://jarokelo.hu/bejelentesek/budapest/159452/utcai-lampa-nem-vilagit-a-buszmegalloban,Utcai lámpa nem világít a buszmegállóban,"III. kerület, Óbuda-Békásmegyer,  Szentlélek tér H",47.5402304,19.0457398,Közvilágítás,Megoldott,False
https://jarokelo.hu/bejelentesek/budapest/159453/ket-utcai-lampa-nem-vilagit-a-polgar-utcaban,Két utcai lámpa nem világít a Polgár utcában,"III. kerület, Óbuda-Békásmegyer,  Polgár u. 3",47.5405767,19.0431816,Közvilágítás,Megoldott,False
https://jarokelo.hu/bejelentesek/budapest/159454/graffitik-eltavolitasa-utcai-korlatrol,Graffitik eltávolítása utcai korlátról,"III. kerület, Óbuda-Békásmegyer,  Serfőző u.",47.5389994,19.0462194,Graffiti,Megerősítésre vár,False
https://jarokelo.hu/bejelentesek/budapest/159455/szobor-diszvilagitasa-nem-mukodik-a-lajos-utcaban,Szobor díszvilágítása nem működik a Lajos utcában,"III. kerület, Óbuda-Békásmegyer,  Lajos u. 168",47.5385643,19.0456787,Közvilágítás,Megerősítésre vár,False
https://jarokelo.hu/bejelentesek/budapest/162601/katyus-ut,Kátyús út,"III. kerület, Óbuda-Békásmegyer,  Folyondár utca",47.52927142179177,19.030540807927647,Kátyú,Megerősítésre vár,False
https://jarokelo.hu/bejelentesek/budapest/162603/rengeteg-szemet,Rengeteg szemét,"II. kerület,  Frankel Leó út 57",47.52342161062261,19.038105411762757,Köztisztaság,Megoldott,False
https://jarokelo.hu/bejelentesek/budapest/162604/elferdult-tabla,Elferdült tábla,"II. kerület,  Árpád fejedelem útja",47.51623074240052,19.039071383956358,Forgalomtechnika,Megerősítésre vár,False
https://jarokelo.hu/bejelentesek/budapest/162605/szetesett-fatamasztek,Szétesett fatámaszték,"III. kerület, Óbuda-Békásmegyer,  Ipartelep u. 1",47.59420447919893,19.055972314893907,Parkok és zöldterületek,Megoldott,False
https://jarokelo.hu/bejelentesek/budapest/162606/pocsek-allapotu-szekreny,Pocsék állapotú szekrény,"III. kerület, Óbuda-Békásmegyer,  Hajógyár u. 27",47.540795565383604,19.04730853055189,Forgalomtechnika,Megoldott,False
https://jarokelo.hu/bejelentesek/budapest/162500/hianyzo-kanyarodo-foutvonal-vagy-vedett-utvonal-tablak,Hiányzó kanyarodó főútvonal vagy védett útvonal táblák,"XXII. kerület, Budafok-Tétény,  Arany János u. 36",47.4280237,19.02014,Forgalomtechnika,Megerősítésre vár,False
https://jarokelo.hu/bejelentesek/budapest/162224/kidontott-kozlekedesi-tabla,Kidöntött közlekedési tábla,"I. kerület, Várkerület,  Mészáros u. 58b",47.4912401,19.0304412,Forgalomtechnika,Megoldott,False
https://jarokelo.hu/bejelentesek/budapest/162179/lomis-tabla-a-faba-szogelve,Lomis tábla a fába szögelve,"III. kerület, Óbuda-Békásmegyer,  Gyűrű u. 18",47.598546638167605,19.060369559559685,Egyéb,Megoldott,False
https://jarokelo.hu/bejelentesek/budapest/162181/alkalmatlan-kuka,Alkalmatlan kuka,"III. kerület, Óbuda-Békásmegyer,  Gyűrű u. 22",47.59869359241367,19.061301627158365,Köztisztaság,Megoldatlan,False
https://jarokelo.hu/bejelentesek/budapest/162182/szemet-es-zoldhulladek,Szemét és zöldhulladék,"III. kerület, Óbuda-Békásmegyer,  Gyűrű u. 16",47.59899473429116,19.06066728475706,Köztisztaság,Megoldott,False
https://jarokelo.hu/bejelentesek/budapest/162183/kidolt-oszlop,Kidőlt oszlop,"III. kerület, Óbuda-Békásmegyer,  Hímző u. 6",47.596366991616364,19.058910397056515,Forgalomtechnika,Megoldott,False
https://jarokelo.hu/bejelentesek/budapest/162184/rongalt-koszos-telefonfulke,"Rongált, koszos telefonfülke","IV. kerület, Újpest,  Munkásotthon u. 62",47.558960173271664,19.096597625929483,Graffiti,Megoldott,False
https://jarokelo.hu/bejelentesek/budapest/162185/teljesen-kifakult-tabla,Teljesen kifakult tábla,"IV. kerület, Újpest,  Munkásotthon u. 62",47.5589891219963,19.096745252062085,Forgalomtechnika,Megerősítésre vár,False
https://jarokelo.hu/bejelentesek/budapest/162186/alkalmatlan-gyujtoedeny,Alkalmatlan gyűjtőedény,"IV. kerület, Újpest,  Munkásotthon u. 64",47.55900541232833,19.096868633666748,Köztisztaság,Megoldott,False
https://jarokelo.hu/bejelentesek/budapest/162188/tabla-a-kidoles-szelen,Tábla a kidőlés szélén,"II. kerület,  Zsigmond tér 2-4.",47.52365994540216,19.038569188744805,Forgalomtechnika,Megoldott,False
https://jarokelo.hu/bejelentesek/budapest/162189/megdolt-tabla,Megdőlt tábla,"III. kerület, Óbuda-Békásmegyer,  Szent János utca",47.578505811832315,19.0637344799624,Forgalomtechnika,Megoldott,False
https://jarokelo.hu/bejelentesek/budapest/161405/gombatamadta-fa,Gombatámadta fa,"XIV. kerület, Zugló,  Komócsy u. 42",47.52061,19.12238,Parkok és zöldterületek,Megoldott,False
https://jarokelo.hu/bejelentesek/budapest/164765/hianyzo-fenyterelok,Hiányzó fényterelők,"VIII. kerület, Józsefváros,  Kerepesi út 6",47.4994859,19.0883192,Forgalomtechnika,Megerősítésre vár,False
https://jarokelo.hu/bejelentesek/budapest/164621/szemet-a-parkban,Szemét a parkban,"XIV. kerület, Zugló,  Rákospatak u. 5a",47.5232,19.12037,Parkok és zöldterületek,Megoldott,False
https://jarokelo.hu/bejelentesek/budapest/164403/tablatartok-es-szemet,Táblatartók és szemét,"II. kerület,  Árpád fejedelem útja",47.51647722031897,19.03941655329053,Forgalomtechnika,Megoldott,False
https://jarokelo.hu/bejelentesek/budapest/164404/rongalt-hajlott-tablak,Rongált hajlott táblák,"II. kerület,  Margit híd",47.51603883418952,19.039517136127273,Forgalomtechnika,Megoldott,False
https://jarokelo.hu/bejelentesek/budapest/164406/rongalt-tereloelem,Rongált terelőelem,"II. kerület,  Margit híd",47.516037022669,19.0395815091384,Forgalomtechnika,Megerősítésre vár,False
https://jarokelo.hu/bejelentesek/budapest/164408/firkas-lejaro,Firkás lejáró,"II. kerület,  Margit híd",47.516080499143726,19.039561392572427,Graffiti,Megoldásra vár,False
https://jarokelo.hu/bejelentesek/budapest/164411/vegigrepedt-ut,Végigrepedt út,"II. kerület,  Margit híd",47.516188284418625,19.03936425021081,Kátyú,Megoldásra vár,False
https://jarokelo.hu/bejelentesek/budapest/164424/sullyedt-ut,Süllyedt út,"XIII. kerület,  Margit híd",47.51462129027034,19.039685342027763,Kátyú,Megoldásra vár,False
https://jarokelo.hu/bejelentesek/budapest/164430/sullyedt-repedezett-ut,"Süllyedt, repedezett út","II. kerület,  Komjádi Béla u. 1",47.520713463351804,19.037954168695688,Kátyú,Megoldásra vár,False
https://jarokelo.hu/bejelentesek/budapest/164434/repedezett-ut-problemas-fedlap,"Repedezett út, problémás fedlap","II. kerület,  Törökvész út 23",47.52311922330803,19.01633845452546,Kátyú,Megerősítésre vár,False
https://jarokelo.hu/bejelentesek/budapest/164437/problemas-fedlapok-repedt-ut,"Problémás fedlapok, repedt út","II. kerület,  Törökvész út 19",47.52312012894604,19.01679979443855,Kátyú,Megerősítésre vár,False
https://jarokelo.hu/bejelentesek/budapest/164159/rendszam-nelkuli-opel-mielobbi-ugyintezesre,Rendszám nélküli Opel - Mielőbbi ügyintézésre,"III. kerület, Óbuda-Békásmegyer,  Gyűrű u. 6",47.59913181397808,19.059803627739665,Elhagyott jármű,Megoldott,False
https://jarokelo.hu/bejelentesek/budapest/164160/leszakadt-szemetgyujto,Leszakadt szemétgyűjtó,"III. kerület, Óbuda-Békásmegyer,  Füst Milán u. 1",47.59874747445214,19.059137098814933,Köztisztaság,Megoldott,False
https://jarokelo.hu/bejelentesek/budapest/164161/toyota-ossze-van-torve,Toyota össze van törve,"III. kerület, Óbuda-Békásmegyer,  Gyűrű u. 12",47.5989165841937,19.06026764988172,Elhagyott jármű,Megoldott,False
https://jarokelo.hu/bejelentesek/budapest/164162/kidolt-forgalomterelo-beton-elemek,Kidőlt forgalomterelő beton elemek,"III. kerület, Óbuda-Békásmegyer,  Királyok útja 134",47.58517228402362,19.067542553890124,Forgalomtechnika,Megoldásra vár,False
https://jarokelo.hu/bejelentesek/budapest/164163/totrott-jarmu-a-zoldteruleten,Tötrött jármű a zöldterületen,"III. kerület, Óbuda-Békásmegyer,  Királyok útja 132",47.584973279077474,19.067467452043807,Elhagyott jármű,Megoldott,False
https://jarokelo.hu/bejelentesek/budapest/164166/ajto-az-arokban-fem-tabla-a-fan,"Ajtó az árokban, fém tábla a fán","III. kerület, Óbuda-Békásmegyer,  Királyok útja 128",47.58516685662496,19.06753048395031,Köztisztaság,Megoldatlan,False
https://jarokelo.hu/bejelentesek/budapest/164167/sullyedt-repedezett-ut,"Süllyedt, repedezett út","III. kerület, Óbuda-Békásmegyer,  Királyok útja 121",47.58536224259253,19.067671299924356,Kátyú,Megerősítésre vár,False
https://jarokelo.hu/bejelentesek/budapest/164170/rossz-minosegu-ut,Rossz minőségű út,"III. kerület, Óbuda-Békásmegyer,  Királyok útja 168",47.588081288204194,19.06534582469429,Kátyú,Megoldott,False
https://jarokelo.hu/bejelentesek/budapest/164171/lakoautok-zoldteruleten,Lakóautók zöldterületen,"III. kerület, Óbuda-Békásmegyer,  Királyok útja 158",47.58743184172414,19.0651909271367,Parkolás,Megoldatlan,False
https://jarokelo.hu/bejelentesek/budapest/164172/zsakos-hulladek,Zsákos hulladék,"III. kerület, Óbuda-Békásmegyer,  Gyűrű u. 10",47.599202803409675,19.060198582930038,Köztisztaság,Megoldott,False
https://jarokelo.hu/bejelentesek/budapest/163182/kitakart-kozvilagitas,Kitakart közvilágítás,"XI. kerület, Újbuda,  Budaörsi út 127b",47.4658099,19.012897,Parkok és zöldterületek,Megoldott,False
https://jarokelo.hu/bejelentesek/budapest/163103/nagyon-rossz-allapotu-ut,Nagyon rossz állapotú út,"XIII. kerület,  Göncz Árpád városközpont",47.53273418377995,19.066320104762113,Kátyú,Megoldatlan,False
https://jarokelo.hu/bejelentesek/budapest/163104/repedezett-ut,Repedezett út,"III. kerület, Óbuda-Békásmegyer,  Pacsirtamező u.",47.5399502992459,19.04097859403197,Kátyú,Megerősítésre vár,False
https://jarokelo.hu/bejelentesek/budapest/163105/repedezett-katyus-ut,"Repedezett, kátyús út","III. kerület, Óbuda-Békásmegyer,  Királyok útja 114",47.584538521344484,19.064932482407645,Kátyú,Megerősítésre vár,False
https://jarokelo.hu/bejelentesek/budapest/163106/uthiba-hetek-ota-nincs-javitva,Úthiba hetek óta nincs javítva,"III. kerület, Óbuda-Békásmegyer,  Királyok útja 211",47.590625800651154,19.06572005432642,Kátyú,Megoldott,False
https://jarokelo.hu/bejelentesek/budapest/163107/hulladek,Hulladék,"III. kerület, Óbuda-Békásmegyer,  Mozaik u. 22",47.553378880416254,19.04793902758672,Köztisztaság,Megoldott,False
https://jarokelo.hu/bejelentesek/budapest/163108/beszakadt-ut,Beszakadt út,"III. kerület, Óbuda-Békásmegyer,  Bogdáni út 1",47.55006944583467,19.047789736563164,Kátyú,Megoldott,False
https://jarokelo.hu/bejelentesek/budapest/163110/sullyedo-egyenelten-ut,"Süllyedő, egyenelten út","II. kerület,  Árpád fejedelem útja",47.51681096808991,19.038926242560287,Kátyú,Megerősítésre vár,False
https://jarokelo.hu/bejelentesek/budapest/167612/jardahiba-parkolo-reszen,Járdahiba (parkoló részen),"XIII. kerület,  Váci út 104",47.53002494146384,19.06539206047434,Járda,Megoldásra vár,False
https://jarokelo.hu/bejelentesek/budapest/167613/firkalt-szekreny,Firkált szekrény,"XIII. kerület,  Zsilip u. 2",47.530695021101145,19.065579815115406,Graffiti,Válaszra vár,False
https://jarokelo.hu/bejelentesek/budapest/167615/fedlaphibak-jarda-sullyedes,"Fedlaphibák, járda süllyedés","XIII. kerület,  Zsilip u. 2",47.53068596602823,19.065587861741797,Közművek,Megoldott,False
https://jarokelo.hu/bejelentesek/budapest/167618/rozsdas-korlat,Rozsdás korlát,"XIII. kerület,  Váci út 112",47.531198480707054,19.06589095136876,Egyéb,Megoldatlan,False
https://jarokelo.hu/bejelentesek/budapest/167620/megdolt-tabla,Megdőlt tábla,"VII. kerület, Erzsébetváros,  Király u. 65",47.5036470016193,19.066343187151496,Forgalomtechnika,Megerősítésre vár,False
https://jarokelo.hu/bejelentesek/budapest/167621/fedlap-es-jardahibak,Fedlap és járdahibák,"VI. kerület, Terézváros,  Király u. 80",47.50449136271229,19.06755286334924,Közművek,Válaszra vár,False
https://jarokelo.hu/bejelentesek/budapest/167623/elfordult-tabla,Elfordult tábla,"III. kerület, Óbuda-Békásmegyer,  Vörösvári út 52-54",47.54358678888695,19.036307347260152,Forgalomtechnika,Megerősítésre vár,False
https://jarokelo.hu/bejelentesek/budapest/167624/minosithetetlen-allapotu-fizetos-parkolo,Minősíthetetlen állapotú fizetős parkoló,"III. kerület, Óbuda-Békásmegyer,  Törzs u. 3",47.54321018913516,19.036061925121995,Kátyú,Megoldásra vár,False
https://jarokelo.hu/bejelentesek/budapest/167625/firkas-epulet,Firkás épület,"II. kerület,  Széll Kálmán tér",47.50712493260416,19.025152444152415,Graffiti,Megoldott,False
https://jarokelo.hu/bejelentesek/budapest/167626/jardaszegely-eldobva,Járdaszegély eldobva,"II. kerület,  Széna tér",47.50788660281041,19.026742361829022,Járda,Megoldott,False
https://jarokelo.hu/bejelentesek/budapest/167629/lefagyott-kozlekedesi-lampa,Lefagyott közlekedési lámpa,"XIV. kerület, Zugló,  Rákospatak u. 33",47.52538,19.11571,Forgalomtechnika,Megoldott,False
https://jarokelo.hu/bejelentesek/budapest/167484/kijart-mocsaras-terulet,Kijárt mocsaras terület,"III. kerület, Óbuda-Békásmegyer,  Királyok útja 267",47.59489229669863,19.066882107548494,Parkok és zöldterületek,Megoldásra vár,False
https://jarokelo.hu/bejelentesek/budapest/167485/betontomb-a-fuben,Betontömb a fűben,"III. kerület, Óbuda-Békásmegyer,  Királyok útja 178",47.590056814352565,19.06510372176192,Parkok és zöldterületek,Megerősítésre vár,False
https://jarokelo.hu/bejelentesek/budapest/167486/nagy-mennyisegu-ag,Nagy mennyiségű ág,"III. kerület, Óbuda-Békásmegyer,  Sinkovits Imre u. 2",47.59006676365148,19.06509098127013,Parkok és zöldterületek,Megoldatlan,False
https://jarokelo.hu/bejelentesek/budapest/167487/tonkrement-ut,Tönkrement út,"III. kerület, Óbuda-Békásmegyer,  Királyok útja 195",47.59023635368657,19.065596577665673,Kátyú,Megerősítésre vár,False
https://jarokelo.hu/bejelentesek/budapest/167489/szetesett-fatamasztek,Szétesett fatámaszték,"III. kerület, Óbuda-Békásmegyer,  Királyok útja 211",47.590868973712,19.065646412985185,Parkok és zöldterületek,Megoldatlan,False
https://jarokelo.hu/bejelentesek/budapest/167490/rossz-allapotu-ut-sullyedt-fedlap,"Rossz állapotú út, süllyedt fedlap","III. kerület, Óbuda-Békásmegyer,  Királyok útja 245",47.5927016036527,19.066368078283137,Kátyú,Megerősítésre vár,False
https://jarokelo.hu/bejelentesek/budapest/167493/sullyedo-ut,Süllyedő út,"III. kerület, Óbuda-Békásmegyer,  Királyok útja 247",47.59286982850059,19.06643379240701,Kátyú,Megerősítésre vár,False
https://jarokelo.hu/bejelentesek/budapest/167494/rongalt-kozmuszekrenyek,Rongált közműszekrények,"V. kerület, Belváros-Lipótváros,  Október 6. u. 26",47.503055305138794,19.050399043828598,Graffiti,Válaszra vár,False
https://jarokelo.hu/bejelentesek/budapest/167495/betontombok-es-oszlop-a-fahoz-lancolva,Betontömbök és oszlop a fához láncolva,"V. kerület, Belváros-Lipótváros,  Október 6. u. 26",47.50303537348039,19.05040172599916,Parkok és zöldterületek,Megerősítésre vár,False
https://jarokelo.hu/bejelentesek/budapest/167496/rongalt-automata,Rongált automata,"II. kerület,  Margit híd",47.514548308701706,19.038729219895075,Graffiti,Megerősítésre vár,False
https://jarokelo.hu/bejelentesek/budapest/167497/rongalt-uvegfelulet,Rongált üvegfelület,"II. kerület,  Széll Kálmán tér 1025",47.50706061266132,19.024723290765145,Graffiti,Megoldatlan,False
https://jarokelo.hu/bejelentesek/budapest/167498/fenyo-es-zoldhulladek,Fenyő és zöldhulladék,"III. kerület, Óbuda-Békásmegyer,  Törzs u. 2",47.543026476472946,19.036793337794524,Parkok és zöldterületek,Megoldott,False
https://jarokelo.hu/bejelentesek/budapest/167499/hianyos-elektromos-doboz,Hiányos elektromos doboz,"III. kerület, Óbuda-Békásmegyer,  Vörösvári út 52-54",47.54329715876678,19.03675042244419,Közművek,Megoldott,False
https://jarokelo.hu/bejelentesek/budapest/167500/fedlaphiany,Fedlaphiány,"III. kerület, Óbuda-Békásmegyer,  Vörösvári út 52-54",47.543372297750366,19.03671689483423,Közművek,Megoldott,False
https://jarokelo.hu/bejelentesek/budapest/167501/borzaszto-allapotu-forgalmas-ut,"Borzasztó állapotú, forgalmas út","VII. kerület, Erzsébetváros,  Király utca / Erzsébet körút",47.50313803060318,19.06577427348639,Kátyú,Megerősítésre vár,False
https://jarokelo.hu/bejelentesek/budapest/166936/tabla-nem-megfeleloen-all,Tábla nem megfelelően áll,"VI. kerület, Terézváros,  Király u. 80",47.50445059451072,19.067794262085975,Forgalomtechnika,Megerősítésre vár,False
https://jarokelo.hu/bejelentesek/budapest/166937/agyonrongalt-szemetes,Agyonrongált szemetes,"VII. kerület, Erzsébetváros,  Csengery u. 32",47.50446690179394,19.067834495394074,Köztisztaság,Megoldott,False
https://jarokelo.hu/bejelentesek/budapest/166938/rongalt-tuzcsap,Rongált tűzcsap,"VII. kerület, Erzsébetváros,  Király u. 77",47.504475961392814,19.06783583649847,Graffiti,Megerősítésre vár,False
https://jarokelo.hu/bejelentesek/budapest/166941/rongalt-fahely,Rongált fahely,"VII. kerület, Erzsébetváros,  Király u. 77",47.50446146603385,19.067830472080878,Graffiti,Megoldott,False
https://jarokelo.hu/bejelentesek/budapest/166942/pocsek-allapotu-fahely,Pocsék állapotú fahely,"VII. kerület, Erzsébetváros,  Erzsébet krt. 51",47.50288507183461,19.0663780558676,Parkok és zöldterületek,Megoldatlan,False
https://jarokelo.hu/bejelentesek/budapest/166943/rongalt-parkoloautomata,Rongált parkolóautomata,"VI. kerület, Terézváros,  Király u. 80",47.50454390833534,19.067648081819264,Graffiti,Megoldott,False
https://jarokelo.hu/bejelentesek/budapest/166944/rongalt-telekom-szekrenyek,Rongált telekom szekrények,"II. kerület,  Varsányi Irén u. 1",47.509455121882525,19.033210029697262,Graffiti,Megoldásra vár,False
https://jarokelo.hu/bejelentesek/budapest/166946/rongalt-postalada,Rongált postaláda,"II. kerület,  Varsányi Irén u. 1",47.50948592158518,19.033399125417457,Graffiti,Megoldott,False
https://jarokelo.hu/bejelentesek/budapest/166947/rongalt-szekreny,Rongált szekrény,"II. kerület,  Kapás u. 31",47.509492262698195,19.03373171930829,Graffiti,Megerősítésre vár,False
https://jarokelo.hu/bejelentesek/budapest/166586/jarmu-nem-mozdul,Jármű nem mozdul,"III. kerület, Óbuda-Békásmegyer,  Gyűrű u. 14",47.59902600783282,19.060523800779222,Elhagyott jármű,Megoldott,False
https://jarokelo.hu/bejelentesek/budapest/166587/gyanus-jarmu,Gyanús jármű,"III. kerület, Óbuda-Békásmegyer,  Füst Milán u. 1",47.59924395013652,19.058981530595116,Elhagyott jármű,Megoldott,False
https://jarokelo.hu/bejelentesek/budapest/166588/betondarab-zoldteruleten,Betondarab zöldterületen,"III. kerület, Óbuda-Békásmegyer,  Juhász Gyula u. 6",47.59784300844512,19.060516526801838,Parkok és zöldterületek,Megoldott,False
https://jarokelo.hu/bejelentesek/budapest/166589/rongalt-graffitis-szekek,"Rongált, graffitis székek","II. kerület,  Kutyafuttató",47.50805742625369,19.02900000840723,Graffiti,Megerősítésre vár,False
https://jarokelo.hu/bejelentesek/budapest/165771/ures-fahely,Üres fahely,"VII. kerület, Erzsébetváros,  Erzsébet krt. 13",47.499007948733215,19.07003005612439,Parkok és zöldterületek,Megoldatlan,False
https://jarokelo.hu/bejelentesek/budapest/165773/rongalt-parkoloautomata,Rongált parkolóautomata,"VII. kerület, Erzsébetváros,  Erzsébet krt. 41a",47.50149508660414,19.067515361120694,Parkolás,Válaszra vár,False
https://jarokelo.hu/bejelentesek/budapest/165774/rossz-allapotu-ut,Rossz állapotú út,"VII. kerület, Erzsébetváros,  Erzsébet krt. 41",47.50196439835794,19.067480492392065,Kátyú,Megerősítésre vár,False
https://jarokelo.hu/bejelentesek/budapest/165776/rossz-allapotu-jarda,Rossz állapotú járda,"VII. kerület, Erzsébetváros,  Erzsébet krt. 41a",47.50226519057598,19.06704999772068,Járda,Megerősítésre vár,False
https://jarokelo.hu/bejelentesek/budapest/165778/fahely-rossz-allapota,Fahely rossz állapota,"XIII. kerület,  Szent István krt. 14",47.512212474283494,19.05104266898468,Parkok és zöldterületek,Megoldatlan,False
https://jarokelo.hu/bejelentesek/budapest/165779/rongalt-elektromos-szekreny,Rongált elektromos szekrény,"VII. kerület, Erzsébetváros,  Erzsébet krt. 39",47.50188791819342,19.067503431076183,Graffiti,Válaszra vár,False
https://jarokelo.hu/bejelentesek/budapest/165780/polleren-elrongalodott-reklam,Polleren elrongálódott reklám,"VII. kerület, Erzsébetváros,  Erzsébet krt. 35",47.50126465017615,19.06818203030954,Forgalomtechnika,Megerősítésre vár,False
https://jarokelo.hu/bejelentesek/budapest/165399/figyelmen-kivul-hagyott-tablak,Figyelmen kívül hagyott táblák,"XIV. kerület, Zugló,  Komócsy u. 36",47.52013,19.12147,Parkolás,Megoldott,False
https://jarokelo.hu/bejelentesek/budapest/169677/abroncs-es-felnigyilkos-katyu,Abroncs- és felnigyilkos kátyú,"III. kerület, Óbuda-Békásmegyer,  Hévízi út 8c",47.5493094,19.0353349,Kátyú,Megerősítésre vár,False
https://jarokelo.hu/bejelentesek/budapest/169705/kiszaradt-fa,Kiszáradt fa,"XIV. kerület, Zugló,  Komócsy utca",47.52147,19.12388,Parkok és zöldterületek,Megoldásra vár,False
https://jarokelo.hu/bejelentesek/budapest/169399/rengeteg-szemet-es-orrfacsaro-buz,Rengeteg szemét és orrfacsaró bűz,"II. kerület,  Erdélyi János tér",47.51415868384119,19.02431280265835,Köztisztaság,Megerősítésre vár,False
https://jarokelo.hu/bejelentesek/budapest/169400/rongalt-szekreny,Rongált szekrény,"II. kerület,  Erdélyi János tér",47.51414690853492,19.024314143762748,Graffiti,Megoldásra vár,False
https://jarokelo.hu/bejelentesek/budapest/169401/zoldhulladek,Zöldhulladék,"II. kerület,  Keleti Károly u. 47",47.51295353237282,19.02397932900607,Köztisztaság,Megoldásra vár,False
https://jarokelo.hu/bejelentesek/budapest/169402/elkepesztoen-rossz-ut,Elképesztően rossz út,"X. kerület, Kőbánya,  Gyakorló u. 2",47.501186008423645,19.13744560229515,Kátyú,Megoldásra vár,False
https://jarokelo.hu/bejelentesek/budapest/169403/graffitis-szekreny,Graffitis szekrény,"X. kerület, Kőbánya,  Gyakorló u. 2",47.50124127540638,19.137169334789053,Graffiti,Megerősítésre vár,False
https://jarokelo.hu/bejelentesek/budapest/169404/rozsdas-oszlop,Rozsdás oszlop,"X. kerület, Kőbánya,  Gyakorló u. 2",47.501475026929,19.137225661154627,Közművek,Megoldott,False
https://jarokelo.hu/bejelentesek/budapest/169406/firkalt-viraglada,Firkált virágláda,"II. kerület,  Kapás u. 22",47.50937721666035,19.033606996608164,Graffiti,Megerősítésre vár,False
https://jarokelo.hu/bejelentesek/budapest/169407/firkalt-parkoloautomata,Firkált parkolóautomata,"II. kerület,  Varsányi Irén u. 10",47.50937540491796,19.03266822351351,Graffiti,Megoldott,False
https://jarokelo.hu/bejelentesek/budapest/169408/fedlap-kozepe-hianyzik,Fedlap közepe hiányzik,"II. kerület,  Szász Károly u. 2",47.50945013957285,19.032662859095915,Egyéb,Megerősítésre vár,False
https://jarokelo.hu/bejelentesek/budapest/169249/firkas-szokokut,Firkás szökőkút,"II. kerület,  Széna tér",47.50836090120867,19.027817154298646,Graffiti,Megoldott,False
https://jarokelo.hu/bejelentesek/budapest/169250/szeteso-oszlop,Széteső oszlop,"II. kerület,  Széna tér",47.508280276691174,19.027780944479886,Közművek,Megoldott,False
https://jarokelo.hu/bejelentesek/budapest/169251/kidobott-fenyofa,Kidobott fenyőfa,"II. kerület,  Bem rkp. 43",47.50999973824989,19.03913463581264,Köztisztaság,Megoldott,False
https://jarokelo.hu/bejelentesek/budapest/169252/oktalan-savelhuzas,Oktalan sávelhúzás,"II. kerület,  Bem rkp. 47",47.51150164008401,19.039215102072408,Egyéb,Megoldott,False
https://jarokelo.hu/bejelentesek/budapest/169253/poller-a-kidoles-szelen,Poller a kidőlés szélén,"I. kerület, Várkerület,  Gyorskocsi u. 3",47.506923332233946,19.037202104230037,Forgalomtechnika,Megerősítésre vár,False
https://jarokelo.hu/bejelentesek/budapest/168922/szemettelep-a-parkoloban,Szeméttelep a parkolóban,"XXIII. kerület, Soroksár,  Ócsai út",47.3771382,19.1326462,Köztisztaság,Megoldatlan,False
https://jarokelo.hu/bejelentesek/budapest/168633/evek-ota-elsullyedo-fedlap,Évek óta elsüllyedő fedlap,"VIII. kerület, Józsefváros,  Asztalos Sándor út 3",47.4976856,19.0995033,Közművek,Megoldásra vár,False
https://jarokelo.hu/bejelentesek/budapest/168221/katyus-utca,Kátyús utca,"IV. kerület, Újpest,  Erdősor út 31",47.576968,19.107748972222225,Kátyú,Megoldott,False
https://jarokelo.hu/bejelentesek/budapest/168093/megdolt-tabla,Megdőlt tábla,"II. kerület,  Csalogány u. 55",47.50805581785601,19.02810933720682,Forgalomtechnika,Megerősítésre vár,False
https://jarokelo.hu/bejelentesek/budapest/168094/fedlaphiany,Fedlaphiány,"II. kerület,  Csalogány u. 45b",47.5079702104223,19.029514144180624,Közművek,Megoldott,False
https://jarokelo.hu/bejelentesek/budapest/168095/megdolt-tabla-rongalt-szemetes,"Megdőlt tábla, rongált szemetes","I. kerület, Várkerület,  Széna tér 1",47.5036470016193,19.066343187151496,Forgalomtechnika,Megerősítésre vár,False
https://jarokelo.hu/bejelentesek/budapest/168096/borzaszto-allapotu-ut,Borzasztó állapotú út,"I. kerület, Várkerület,  Széna tér 7",47.50752450596724,19.02677091490655,Kátyú,Megoldatlan,False
https://jarokelo.hu/bejelentesek/budapest/168097/tonkrement-utcabutorok,Tönkrement utcabútorok,"II. kerület,  Széll Kálmán tér M",47.50670048670309,19.02484700808254,Parkok és zöldterületek,Megerősítésre vár,False
https://jarokelo.hu/bejelentesek/budapest/168098/ferde-fedlap,Ferde fedlap,"I. kerület, Várkerület,  Déli pályaudvar M",47.50105690656429,19.023945244942013,Kátyú,Megoldott,False
https://jarokelo.hu/bejelentesek/budapest/168099/pocsek-allapotu-atjaro,Pocsék állapotú átjáró,"XII. kerület, Hegyvidék,  Csörsz utca",47.49002310956315,19.024580738043163,Kátyú,Megoldásra vár,False
https://jarokelo.hu/bejelentesek/budapest/168101/hibas-tabla,Hibás tábla,"XII. kerület, Hegyvidék,  Csörsz utca",47.49010013728827,19.02458207916085,Forgalomtechnika,Megoldatlan,False
https://jarokelo.hu/bejelentesek/budapest/168102/rongalt-szekreny,Rongált szekrény,"XII. kerület, Hegyvidék,  Csörsz utca",47.49075622771452,19.024653157699525,Graffiti,Megerősítésre vár,False
https://jarokelo.hu/bejelentesek/budapest/168104/aszfaltpup,Aszfaltpúp,"III. kerület, Óbuda-Békásmegyer,  Mozaik u. 7",47.55040345347635,19.04772737528889,Kátyú,Megoldásra vár,False
https://jarokelo.hu/bejelentesek/budapest/167830/serult-szemetes,Sérült szemetes,"VIII. kerület, Józsefváros,  Hungária krt. 26",47.4955686,19.1089819,Köztisztaság,Megoldott,False
https://jarokelo.hu/bejelentesek/budapest/167845/szemetlerakat,Szemétlerakat,"X. kerület, Kőbánya,  Jászberényi út 119",47.486394,19.2097634,Köztisztaság,Megerősítésre vár,False
https://jarokelo.hu/bejelentesek/budapest/167745/sarga-rovarcsapda-kozteruleten,Sárga rovarcsapda közterületen?,"XIII. kerület,  Tahi u. 62",47.540161,19.082491,Parkok és zöldterületek,Megerősítésre vár,False
https://jarokelo.hu/bejelentesek/budapest/171978/tonkrement-utjavitas,Tönkrement útjavítás,"III. kerület, Óbuda-Békásmegyer,  Madzsar József utca / Pünkösdfürdő utca",47.594810900799125,19.0536574762939,Kátyú,Megoldásra vár,False
https://jarokelo.hu/bejelentesek/budapest/171980/gazos-viragladak,Gazos virágládák,"III. kerület, Óbuda-Békásmegyer,  Heltai Jenő tér 4",47.59715584324589,19.057229664490432,Parkok és zöldterületek,Megoldásra vár,False
https://jarokelo.hu/bejelentesek/budapest/171981/balesetes-poller,Balesetes poller,"III. kerület, Óbuda-Békásmegyer,  Heltai Jenő tér 1",47.59720829604819,19.057228323386035,Forgalomtechnika,Megoldásra vár,False
https://jarokelo.hu/bejelentesek/budapest/171982/katyus-repedezett-ut,"Kátyús, repedezett út","III. kerület, Óbuda-Békásmegyer,  Füst Milán u. 1",47.59892381881139,19.05946835154798,Kátyú,Megoldásra vár,False
https://jarokelo.hu/bejelentesek/budapest/171985/roncsbol-mar-folyik-is-valami,Roncsból már folyik is valami,"III. kerület, Óbuda-Békásmegyer,  Gyűrű u. 12",47.59915713506405,19.060545258422373,Elhagyott jármű,Válaszra vár,False
https://jarokelo.hu/bejelentesek/budapest/171986/elfordult-megdolt-tabla,"Elfordult, megdőlt tábla","III. kerület, Óbuda-Békásmegyer,  Losonc u. 2",47.57711583597436,19.063231425192356,Forgalomtechnika,Megoldásra vár,False
https://jarokelo.hu/bejelentesek/budapest/171988/rossz-allapotu-ut,Rossz állapotú út,"III. kerület, Óbuda-Békásmegyer,  Királyok útja 15",47.57755144775681,19.063281784962925,Kátyú,Megoldásra vár,False
https://jarokelo.hu/bejelentesek/budapest/171989/sullyedt-fedlap-es-ut,Süllyedt fedlap és út,"III. kerület, Óbuda-Békásmegyer,  Szent János utca",47.57876146932201,19.063766525894213,Közművek,Megoldásra vár,False
https://jarokelo.hu/bejelentesek/budapest/171990/aszfalthiany-a-fedlap-korul,Aszfalthiány a fedlap körül,"III. kerület, Óbuda-Békásmegyer,  Királyok útja 89",47.583265858126225,19.064791510860815,Kátyú,Megoldásra vár,False
https://jarokelo.hu/bejelentesek/budapest/171991/megsullyedt-fedlapok,Megsüllyedt fedlapok,"III. kerület, Óbuda-Békásmegyer,  Királyok útja 105",47.58416776283025,19.064897193022556,Közművek,Megoldásra vár,False
https://jarokelo.hu/bejelentesek/budapest/171504/betondarab-zoldfeluleten,Betondarab zöldfelületen,"I. kerület, Várkerület,  Budapest 24",47.507555306813735,19.033426816250923,Parkok és zöldterületek,Megoldott,False
https://jarokelo.hu/bejelentesek/budapest/171505/nyitott-fedel,Nyitott fedél,"II. kerület,  Csalogány u. 23",47.50784338434672,19.03329136470634,Közművek,Megoldott,False
https://jarokelo.hu/bejelentesek/budapest/171506/fedlap-koruli-uthiba,Fedlap körüli úthiba,"I. kerület, Várkerület,  15/b",47.5059262450644,19.0250618857745,Kátyú,Megoldott,False
https://jarokelo.hu/bejelentesek/budapest/171507/megsullyedt-uttest,Megsüllyedt úttest,"I. kerület, Várkerület,  Vérmező út 14",47.50606757069977,19.02491838760386,Kátyú,Megerősítésre vár,False
https://jarokelo.hu/bejelentesek/budapest/171508/rossz-minosegu-ut,Rossz minőségű út,"III. kerület, Óbuda-Békásmegyer,  Királyok útja 141",47.58652363479247,19.065160476318333,Kátyú,Megoldásra vár,False
https://jarokelo.hu/bejelentesek/budapest/171509/repedezett-az-ut-a-fedlap-korul,Repedezett az út a fedlap körül,"III. kerület, Óbuda-Békásmegyer,  Királyok útja 55",47.58008769094284,19.064054829674287,Kátyú,Megoldásra vár,False
https://jarokelo.hu/bejelentesek/budapest/171510/repedezett-ut-a-megsullyedt-fedlap-korul,Repedezett út a megsüllyedt fedlap körül,"III. kerület, Óbuda-Békásmegyer,  Királyok útja 60",47.580944404738744,19.06429214424025,Kátyú,Megoldásra vár,False
https://jarokelo.hu/bejelentesek/budapest/171511/rendkivul-sok-katyu,Rendkívül sok kátyú,"III. kerület, Óbuda-Békásmegyer,  Királyok útja 60",47.58093716762404,19.06428745037486,Kátyú,Megoldásra vár,False
https://jarokelo.hu/bejelentesek/budapest/171512/tonkrement-javitas,Tönkrement javítás,"III. kerület, Óbuda-Békásmegyer,  Királyok útja 50",47.580440672550324,19.064156943869982,Kátyú,Megoldásra vár,False
https://jarokelo.hu/bejelentesek/budapest/171513/elfordult-tabla,Elfordult tábla,"III. kerület, Óbuda-Békásmegyer,  Királyok útja 38",47.57972401168001,19.0640464027517,Forgalomtechnika,Megerősítésre vár,False
https://jarokelo.hu/bejelentesek/budapest/171544/borzaszto-rossz-az-ut,Borzasztó rossz az út,"I. kerület, Várkerület,  Déli Pályaudvar M",47.500972646779175,19.024393173842924,Kátyú,Megoldásra vár,False
https://jarokelo.hu/bejelentesek/budapest/171545/egyre-rosszabb-a-fal-allapota,Egyre rosszabb a fal állapota,"I. kerület, Várkerület,  Déli pályaudvar M",47.500610237419494,19.025012764075907,Egyéb,Válaszra vár,False
https://jarokelo.hu/bejelentesek/budapest/171546/mocsaras-parkolo-600ft-ert,Mocsaras parkoló 600Ft-ért,"II. kerület,  Csalogány u. 41",47.5078696554888,19.031849677359524,Parkolás,Megerősítésre vár,False
https://jarokelo.hu/bejelentesek/budapest/171548/elfordult-tabla-nincs-felfestes,"Elfordult tábla, nincs felfestés","III. kerület, Óbuda-Békásmegyer,  Bogdáni út 15",47.550231351568684,19.038650750156094,Forgalomtechnika,Megerősítésre vár,False
https://jarokelo.hu/bejelentesek/budapest/171550/graffitis-epulet,Graffitis épület,"III. kerület, Óbuda-Békásmegyer,  Kunigunda útja 7",47.548484344604915,19.03453490043119,Graffiti,Megoldásra vár,False
https://jarokelo.hu/bejelentesek/budapest/171551/rongalt-tablak,Rongált táblák,"VIII. kerület, Józsefváros,  Vajdahunyad u. 54",47.48475676860926,19.072642244409103,Forgalomtechnika,Megoldott,False
https://jarokelo.hu/bejelentesek/budapest/171552/kidolt-poller,Kidőlt poller,"VIII. kerület, Józsefváros,  1082 Budapest Corvin-negyed Kisfaludy utca 40. fszt. 4. Kapucsengő: 4",47.4853206439338,19.071772118512342,Forgalomtechnika,Megerősítésre vár,False
https://jarokelo.hu/bejelentesek/budapest/171379/eltakart-tablak,Eltakart táblák,"XIV. kerület, Zugló,  Komócsy utca",47.52154,19.12271,Parkok és zöldterületek,Megoldott,False
https://jarokelo.hu/bejelentesek/budapest/171402/forgalombol-kivont-gepjarmu-fcm42x-kozteruleten-parkol,Forgalomból kivont gépjármű (FCM42X) közterületen parkol,"XII. kerület, Hegyvidék,  Ormódi u. 16",47.488999,19.006468,Elhagyott jármű,Megoldatlan,False
https://jarokelo.hu/bejelentesek/budapest/171182/molino,Molinó,"II. kerület,  Széll Kálmán tér M",47.506756,19.025499,Egyéb,Megerősítésre vár,False
https://jarokelo.hu/bejelentesek/budapest/171183/buzlo-lepcso,Bűzlő lépcső,"II. kerület,  Széll Kálmán tér M",47.50677,19.025472,Köztisztaság,Megoldott,False
https://jarokelo.hu/bejelentesek/budapest/171185/allandoan-letepett-plakatok,Állandóan letépett plakátok,"III. kerület, Óbuda-Békásmegyer,  Árpád fejedelem útja 125",47.531189,19.043484,Egyéb,Megoldásra vár,False
https://jarokelo.hu/bejelentesek/budapest/171186/torott-vasuti-kerites,Törött vasúti kerítés,"III. kerület, Óbuda-Békásmegyer,  Árpád fejedelem útja 103",47.536511,19.046947,Közösségi közlekedés,Megerősítésre vár,False
https://jarokelo.hu/bejelentesek/budapest/171275/kozvilagitas-este-egy-ido-utan-kialszik,Közvilágítás este egy idő után kialszik,"XX. kerület, Pesterzsébet,  Ilona u. 13",47.4442534,19.1093924,Közvilágítás,Megoldott,False
https://jarokelo.hu/bejelentesek/budapest/170994/sok-szemet,Sok szemét,"III. kerület, Óbuda-Békásmegyer,  11.",47.601543,19.059965,Köztisztaság,Megoldatlan,False
https://jarokelo.hu/bejelentesek/budapest/170996/nyitott-elektromos-szekreny,Nyitott elektromos szekrény,"III. kerület, Óbuda-Békásmegyer,  Kossuth Lajos üdülőpart 136",47.594279,19.06923,Közművek,Megoldatlan,False
https://jarokelo.hu/bejelentesek/budapest/170997/rendszam-nelkuli-autok,Rendszám nélküli autók,"III. kerület, Óbuda-Békásmegyer,  Batthyány u. 70",47.591783,19.050991,Elhagyott jármű,Megoldott,False
https://jarokelo.hu/bejelentesek/budapest/171000/gyanus-jarmu,Gyanús jármű,"III. kerület, Óbuda-Békásmegyer,  Füst Milán u. 3",47.600468,19.059821,Elhagyott jármű,Válaszra vár,False
https://jarokelo.hu/bejelentesek/budapest/171002/botlasveszelyes-jarda,Botlásveszélyes járda,"III. kerület, Óbuda-Békásmegyer,  Gyűrű u. 12",47.599227,19.060406,Járda,Megoldásra vár,False
https://jarokelo.hu/bejelentesek/budapest/170800/velelmezhetoen-hibas-tabla,Vélelmezhetően hibás tábla,"XVIII. kerület, Pestszentlőrinc-Pestszentimre,  Üllői út 392",47.4447711,19.1745871,Forgalomtechnika,Megoldásra vár,False
https://jarokelo.hu/bejelentesek/budapest/174154/lyuk-a-hidon,Lyuk a hídon,"IV. kerület, Újpest,  Zsilip u. 9",47.5608428,19.0753642,Járda,Megoldatlan,False
https://jarokelo.hu/bejelentesek/budapest/173771/szemetes-kidolt,Szemetes kidőlt,"III. kerület, Óbuda-Békásmegyer,  Ányos u. 5",47.57193,19.0498321,Köztisztaság,Megoldatlan,False
https://jarokelo.hu/bejelentesek/budapest/173047/megdolt-tabla,Megdőlt tábla,"V. kerület, Belváros-Lipótváros,  Képíró u 1",47.48967307875125,19.05949026459039,Forgalomtechnika,Megoldásra vár,False
https://jarokelo.hu/bejelentesek/budapest/173048/elfordult-rongalt-tabla,"Elfordult, rongált tábla","IX. kerület, Ferencváros,  Pipa u. 4",47.487073082755614,19.05904501817613,Forgalomtechnika,Megerősítésre vár,False
https://jarokelo.hu/bejelentesek/budapest/173049/pocsek-allapotu-tablak,Pocsék állapotú táblák,"IX. kerület, Ferencváros,  Vámház krt. 5",47.4874591481538,19.05863195797215,Forgalomtechnika,Megerősítésre vár,False
https://jarokelo.hu/bejelentesek/budapest/173051/felhaboritoan-rossz-ut,Felháborítóan rossz út,"IX. kerület, Ferencváros,  Közraktár u. 22. 2",47.48263493940891,19.063211829873897,Kátyú,Megoldásra vár,False
https://jarokelo.hu/bejelentesek/budapest/173057/rossz-allapotu-ut,Rossz állapotú út,"XIII. kerület,  Népfürdő u. 3a",47.52852071144229,19.05675521457752,Kátyú,Megoldatlan,False
https://jarokelo.hu/bejelentesek/budapest/173059/rongalt-automata,Rongált automata,"XIII. kerület,  Viza utca",47.53010357981371,19.05799975952165,Graffiti,Megoldott,False
https://jarokelo.hu/bejelentesek/budapest/173060/betontomb-a-bokorban,Betontömb a bokorban,"XIII. kerület,  Népfürdő u. 17d",47.531122863323716,19.05815920325465,Parkok és zöldterületek,Megoldott,False
https://jarokelo.hu/bejelentesek/budapest/173061/rengeteg-ag-kidobva,Rengeteg ág kidobva,"III. kerület, Óbuda-Békásmegyer,  Árpád fejedelem útja 125",47.53164895446624,19.04349453949823,Köztisztaság,Megoldott,False
https://jarokelo.hu/bejelentesek/budapest/173064/ez-nem-mehlegelo-csak-gondozatlan,"Ez nem méhlegelő, csak gondozatlan!","III. kerület, Óbuda-Békásmegyer,  Árpád fejedelem útja 77",47.53220854477304,19.04323972965859,Parkok és zöldterületek,Megoldott,False
https://jarokelo.hu/bejelentesek/budapest/172698/laza-csatornafedel,Laza csatornafedél,"VIII. kerület, Józsefváros,  Tavaszmező u. 7-13",47.4906942,19.0772015,Közművek,Megoldatlan,False
https://jarokelo.hu/bejelentesek/budapest/172618/hianyzo-zebrak,Hiányzó zebrák,"III. kerület, Óbuda-Békásmegyer,  0306-Kiscelli utca - Zápor utca",47.5390664,19.0358765,Forgalomtechnika,Megoldatlan,False
https://jarokelo.hu/bejelentesek/budapest/172619/hianyzo-zebrak,Hiányzó zebrák,"III. kerület, Óbuda-Békásmegyer,  Kiscelli u. 65",47.5388806,19.0343712,Forgalomtechnika,Válaszra vár,False
https://jarokelo.hu/bejelentesek/budapest/172380/mely-katyu-csatornafedel,"Mély kátyú, csatornafedél","IV. kerület, Újpest,  Megyeri út 36",47.581905,19.090203,Kátyú,Megoldásra vár,False
https://jarokelo.hu/bejelentesek/budapest/172304/nem-jol-van-beallitva-a-jelzolampa,Nem jól van beállítva a jelzőlámpa,"III. kerület, Óbuda-Békásmegyer,  Bécsi út 314",47.571343,19.017535,Forgalomtechnika,Megoldatlan,False
https://jarokelo.hu/bejelentesek/budapest/172321/zolditesi-javaslat,Zöldítési javaslat,"II. kerület,  Tölgyfa u. 2",47.51181698073511,19.0356791228962,Parkok és zöldterületek,Megoldatlan,False
https://jarokelo.hu/bejelentesek/budapest/176355/2-jardahiba-forgalmas-zebra-mellett,"2 járdahiba, forgalmas zebra mellett","II. kerület,  Mechwart tér 48",47.51090727730166,19.032332657063726,Járda,Megoldásra vár,False
https://jarokelo.hu/bejelentesek/budapest/176357/tablahibak,Táblahibák,"II. kerület,  Margit körút 48",47.511055836296975,19.032606242375184,Forgalomtechnika,Megoldásra vár,False
https://jarokelo.hu/bejelentesek/budapest/176358/pocsek-allapotu-jarda,Pocsék állapotú járda,"II. kerület,  Kapás u. 8",47.50818422508754,19.03290262651292,Járda,Megoldásra vár,False
https://jarokelo.hu/bejelentesek/budapest/176360/fedlap-kozepe-hianyzik,Fedlap közepe hiányzik,"I. kerület, Várkerület,  Batthyány tér 2",47.50673567767472,19.03826972673418,Járda,Megoldott,False
https://jarokelo.hu/bejelentesek/budapest/176362/pocsek-ut,Pocsék út,"I. kerület, Várkerület,  Fiáth János u. 22",47.50796680963329,19.02869021739717,Kátyú,Megoldásra vár,False
https://jarokelo.hu/bejelentesek/budapest/176363/pocsek-allapotu-atjaro,Pocsék állapotú átjáró,"I. kerület, Várkerület,  Királyhágó utca",47.49554201262578,19.023639268507694,Kátyú,Megoldásra vár,False
https://jarokelo.hu/bejelentesek/budapest/176366/ures-vagy-kiszaradt-novenyes-viragladak,"Üres, vagy kiszáradt növényes virágládák","I. kerület, Várkerület,  Márvány u. 17",47.49557735105931,19.02400404890409,Parkok és zöldterületek,Válaszra vár,False
https://jarokelo.hu/bejelentesek/budapest/176368/foszlik-a-feluljaro,Foszlik a felüljáró,"I. kerület, Várkerület,  Döbrentei tér",47.49152777417788,19.04397845934281,Egyéb,Megoldásra vár,False
https://jarokelo.hu/bejelentesek/budapest/176369/tabla-takarva,Tábla takarva,"VIII. kerület, Józsefváros,  Auróra Klímakert",47.49427825128867,19.076020903437925,Parkok és zöldterületek,Válaszra vár,False
https://jarokelo.hu/bejelentesek/budapest/176370/rongalt-utcanev-tabla,Rongált utcanév tábla,"VIII. kerület, Józsefváros,  Auróra u. 7",47.494290484120434,19.075984693619166,Graffiti,Válaszra vár,False
https://jarokelo.hu/bejelentesek/budapest/176199/kidobott-iroasztal,Kidobott íróasztal,"XI. kerület, Újbuda,  Bártfai u. 50",47.466275,19.035618,Köztisztaság,Válaszra vár,False
https://jarokelo.hu/bejelentesek/budapest/176042/egy-nagyon-rozsdas-kozmuszekreny,Egy nagyon rozsdás közműszekrény,"X. kerület, Kőbánya,  Gergely utca",47.46864,19.15533,Közművek,Válaszra vár,False
https://jarokelo.hu/bejelentesek/budapest/175887/kidolt-csokorlat,Kidőlt csőkorlát,"II. kerület,  Jurányi u. 1",47.50797881647685,19.030057961774716,Forgalomtechnika,Megoldott,False
https://jarokelo.hu/bejelentesek/budapest/175888/graffitis-fal-szemet,Graffitis fal + szemét,"II. kerület,  Margit körút 68",47.50834706327642,19.02768353625269,Graffiti,Megoldott,False
https://jarokelo.hu/bejelentesek/budapest/175890/firkas-megallo,Firkás megálló,"III. kerület, Óbuda-Békásmegyer,  Rómaifürdő",47.57550665803497,19.04858810685801,Graffiti,Válaszra vár,False
https://jarokelo.hu/bejelentesek/budapest/175892/lezaras-elemei-szanaszet,Lezárás elemei szanaszét,"II. kerület,  Dog park",47.5167654167974,19.03938716420926,Forgalomtechnika,Megoldásra vár,False
https://jarokelo.hu/bejelentesek/budapest/175778/kiszaradt-fa,Kiszáradt fa,"III. kerület, Óbuda-Békásmegyer,  Békásmegyer",47.59836220383086,19.05774943774709,Parkok és zöldterületek,Megoldásra vár,False
https://jarokelo.hu/bejelentesek/budapest/175780/rengeteg-leszakadt-ag-nem-lehet-parkolni,Rengeteg leszakadt ág – nem lehet parkolni,"III. kerület, Óbuda-Békásmegyer,  Gyűrű u. 8",47.599177910595444,19.060084300701256,Parkok és zöldterületek,Megoldott,False
https://jarokelo.hu/bejelentesek/budapest/175782/kornyezetszennyezes-kifolyt-vegyszer,Környezetszennyezés - kifolyt vegyszer,"III. kerület, Óbuda-Békásmegyer,  Gyűrű u. 8",47.599189666808805,19.060085641801138,Köztisztaság,Válaszra vár,False
https://jarokelo.hu/bejelentesek/budapest/175783/sullyedt-fedlap-repedezett-ut,"Süllyedt fedlap, repedezett út","III. kerület, Óbuda-Békásmegyer,  Gyűrű u. 6",47.59919328410516,19.059797974891968,Kátyú,Válaszra vár,False
https://jarokelo.hu/bejelentesek/budapest/175784/zoldhulladek,Zöldhulladék,"III. kerület, Óbuda-Békásmegyer,  Gyűrű u. 6",47.5992936639615,19.05981473869695,Köztisztaság,Megoldott,False
https://jarokelo.hu/bejelentesek/budapest/175785/leszakadt-szemetes,Leszakadt szemetes,"III. kerület, Óbuda-Békásmegyer,  Juhász Gyula u. 8",47.59710563972717,19.06168513499567,Köztisztaság,Megoldott,False
https://jarokelo.hu/bejelentesek/budapest/175786/belogo-bokor-1parkolo,Belógó bokor - -1parkoló,"III. kerület, Óbuda-Békásmegyer,  Gyűrű u. 12",47.598865645565766,19.06011279330968,Parkok és zöldterületek,Válaszra vár,False
https://jarokelo.hu/bejelentesek/budapest/175448/kidolt-csokorlat,Kidőlt csőkorlát,"II. kerület,  Bem rkp. 30",47.507622796813635,19.03931359426715,Forgalomtechnika,Megoldásra vár,False
https://jarokelo.hu/bejelentesek/budapest/175451/ideiglenes-tabla,Ideiglenes tábla,"I. kerület, Várkerület,  Gyorskocsi u. 3",47.50686545433729,19.037261704463774,Forgalomtechnika,Megoldásra vár,False
https://jarokelo.hu/bejelentesek/budapest/175453/rongalt-telefonfulke,Rongált telefonfülke,"V. kerület, Belváros-Lipótváros,  Báthory utca 8 05",47.50610751099031,19.050230870892122,Graffiti,Megoldott,False
https://jarokelo.hu/bejelentesek/budapest/175454/hianyzo-utcanevtablak,Hiányzó utcanévtáblák,"V. kerület, Belváros-Lipótváros,  Honvéd u. 6",47.50612810949258,19.049914708961126,Egyéb,Megoldásra vár,False
https://jarokelo.hu/bejelentesek/budapest/175255/elforditott-tabla,Elfordított tábla,"XII. kerület, Hegyvidék,  Hegyalja út 68",47.4870051,19.0239497,Forgalomtechnika,Megerősítésre vár,False
https://jarokelo.hu/bejelentesek/budapest/174542/gyanus-gepjarmu-olajszivargassal,Gyanús gépjármű olajszivárgással,"III. kerület, Óbuda-Békásmegyer,  Gyűrű u. 12",47.598839716189374,19.06015767932209,Elhagyott jármű,Megoldásra vár,False
https://jarokelo.hu/bejelentesek/budapest/174543/zoldhulladek-domb-eldobalt-deszkak,"Zöldhulladék domb, eldobált deszkák","III. kerület, Óbuda-Békásmegyer,  Gyűrű u. 16",47.59901425159135,19.06068339227715,Köztisztaság,Válaszra vár,False
https://jarokelo.hu/bejelentesek/budapest/178609/repedezett-az-ut-a-fedlap-korul,Repedezett az út a fedlap körül,"III. kerület, Óbuda-Békásmegyer,  Budapest",47.54207494177433,19.038772297404837,Közművek,Válaszra vár,False
https://jarokelo.hu/bejelentesek/budapest/178610/jardahiba,Járdahiba,"III. kerület, Óbuda-Békásmegyer,  Budapest",47.54178343090888,19.03907136372906,Járda,Válaszra vár,False
https://jarokelo.hu/bejelentesek/budapest/178611/buszobol-vagy-ugratok,Buszöböl vagy ugratók?,"III. kerület, Óbuda-Békásmegyer,  Budapest",47.54179972658984,19.039057952685077,Kátyú,Válaszra vár,False
https://jarokelo.hu/bejelentesek/budapest/178612/durvan-firkas-megallo,Durván firkás megálló,"III. kerület, Óbuda-Békásmegyer,  Aquincum",47.567435495795095,19.04865756824771,Graffiti,Válaszra vár,False
https://jarokelo.hu/bejelentesek/budapest/178614/hol-vannak-a-biciklik,Hol vannak a biciklik?,"XI. kerület, Újbuda,  Tas vezér utca",47.47857742406915,19.040921676780094,Közösségi közlekedés,Válaszra vár,False
https://jarokelo.hu/bejelentesek/budapest/178616/aluljaro-padlozata,Aluljáró padlózata,"III. kerület, Óbuda-Békásmegyer,  Békásmegyer H",47.59810539505405,19.055707894740237,Közösségi közlekedés,Megoldásra vár,False
https://jarokelo.hu/bejelentesek/budapest/178617/rengeteg-szemet,Rengeteg szemét,"X. kerület, Kőbánya,  Zöldpálya u. 20",47.48321471448401,19.200067252426088,Köztisztaság,Válaszra vár,False
https://jarokelo.hu/bejelentesek/budapest/178618/tabla-a-kidoles-szelen,Tábla a kidőlés szélén,"X. kerület, Kőbánya,  Szellőrózsa u. 20",47.483455796828636,19.199962646283,Egyéb,Válaszra vár,False
https://jarokelo.hu/bejelentesek/budapest/178660/szemet-a-hid-alatt,Szemét a híd alatt,"III. kerület, Óbuda-Békásmegyer,  Szentlélek tér H",47.539175960125455,19.046946981436715,Köztisztaság,Megoldott,False
https://jarokelo.hu/bejelentesek/budapest/178662/rossz-az-ut-a-zebranal,Rossz az út a zebránál,"XIII. kerület,  Dózsa György út 128",47.51956172679936,19.071255965332785,Kátyú,Válaszra vár,False
https://jarokelo.hu/bejelentesek/budapest/178663/szemet,Szemét,"XIII. kerület,  Vágány utca / Dózsa György út",47.519155066168445,19.07187421452999,Köztisztaság,Megoldott,False
https://jarokelo.hu/bejelentesek/budapest/178665/rongalt-tabla,Rongált tábla,"XIII. kerület,  Váci út 29",47.52436130068655,19.06377470670329,Graffiti,Válaszra vár,False
https://jarokelo.hu/bejelentesek/budapest/178670/jardahiba-a-fedlap-mellett,Járdahiba a fedlap mellett,"VI. kerület, Terézváros,  Podmaniczky u. 113",47.51696173913005,19.07235410387693,Járda,Megoldott,False
https://jarokelo.hu/bejelentesek/budapest/178673/buzlo-szemet-a-bokorban,Bűzlő szemét a bokorban,"VI. kerület, Terézváros,  Honvédkórház (Hősök tere M)",47.51706861684737,19.072619642583906,Köztisztaság,Válaszra vár,False
https://jarokelo.hu/bejelentesek/budapest/178676/szemet-az-aluljaro-elott,Szemét az aluljáró előtt,"VI. kerület, Terézváros,  Dózsa György út 112",47.51777694895712,19.07303771131485,Köztisztaság,Megoldott,False
https://jarokelo.hu/bejelentesek/budapest/178588/egy-nagyon-balesetveszelyes-aknafedel,Egy nagyon balesetveszÃĐlyes aknafedÃĐl,"X. kerÃžlet, KÅbÃĄnya,  Akna u. 2",47.481618,19.162511,KÃķzmÅąvek,VÃĄlaszra vÃĄr,False
https://jarokelo.hu/bejelentesek/budapest/178284/szamhaboruzos-tabla,Számháborúzós tábla,"XXI. kerület, Csepel,  Templom u. 32",47.4329271,19.0691808,Forgalomtechnika,Megoldásra vár,False
https://jarokelo.hu/bejelentesek/budapest/178199/rongalt-szekreny,Rongált szekrény,"XIII. kerület,  Váci út 18",47.513337263812744,19.05767827623255,Graffiti,Megoldott,False
https://jarokelo.hu/bejelentesek/budapest/178200/egyenetlen-fedlapok,Egyenetlen fedlapok,"XIII. kerület,  Váci út 18",47.513346321880626,19.05767827623255,Közművek,Megoldásra vár,False
https://jarokelo.hu/bejelentesek/budapest/178201/pocsek-minosegu-ut,Pocsék minőségű út,"XIII. kerület,  Váci út 18",47.51353291773116,19.057925039441876,Kátyú,Megoldásra vár,False
https://jarokelo.hu/bejelentesek/budapest/178202/kivagott-fa-helye,Kivágott fa helye,"XIII. kerület,  Váci út 18",47.51325936436443,19.057605856595032,Parkok és zöldterületek,Válaszra vár,False
https://jarokelo.hu/bejelentesek/budapest/178203/rongalt-parkoloautomata,Rongált parkolóautomata,"XIII. kerület,  Váci út 18",47.51327204567784,19.057619267639016,Egyéb,Válaszra vár,False
https://jarokelo.hu/bejelentesek/budapest/178207/botlasveszelyes-jarda,Botlásveszélyes járda,"II. kerület,  Szépvölgyi út 6",47.527393224442726,19.038184841355154,Járda,Megoldásra vár,False
https://jarokelo.hu/bejelentesek/budapest/178208/rongalt-biciklis-pont,Rongált biciklis pont,"XI. kerület, Újbuda,  Tas vezér utca",47.478573293970655,19.040928968831597,Graffiti,Megoldásra vár,False
https://jarokelo.hu/bejelentesek/budapest/178210/rongalt-elektromos-doboz,Rongált elektromos doboz,"XI. kerület, Újbuda,  Villányi út 16",47.47837841615283,19.04165316524296,Graffiti,Megoldott,False
https://jarokelo.hu/bejelentesek/budapest/178010/megsullyedt-vasuti-atkelo,Megsüllyedt vasúti átkelő,"XV. kerület,  Késmárk u 11-13",47.530753,19.146929,Kátyú,Válaszra vár,False
https://jarokelo.hu/bejelentesek/budapest/177429/punkosdfurdoi-gat-parkvilagitas,"Pünkösdfürdői gát, parkvilágítás","III. kerület, Óbuda-Békásmegyer,  Kossuth Lajos üdülőpart 131",47.599867,19.070384,Közvilágítás,Megoldott,False
https://jarokelo.hu/bejelentesek/budapest/177437/hianyzo-esocsatorna,Hiányzó esőcsatorna,"XI. kerület, Újbuda,  Kutyafuttató",47.4701378,19.0530669,Közművek,Megoldásra vár,False
https://jarokelo.hu/bejelentesek/budapest/177445/vizfolyas,Vízfolyás,"XIV. kerület, Zugló,  Fűrész u. 31a",47.52019,19.11973,Közművek,Megoldott,False
https://jarokelo.hu/bejelentesek/budapest/177151/allandoan-ures-bicikli-pont,Állandóan üres bicikli pont,"I. kerület, Várkerület,  Királyhágó utca",47.495298363133806,19.023872176962648,Kerékpározás,Megoldott,False
https://jarokelo.hu/bejelentesek/budapest/177152/fedlaphiba-a-jardan,Fedlaphiba a járdán,"I. kerület, Várkerület,  Márvány u. 15",47.49533324867367,19.02387687082924,Közművek,Megoldásra vár,False
https://jarokelo.hu/bejelentesek/budapest/177153/reklam-auto-a-jardan,Reklám autó a járdán,"I. kerület, Várkerület,  Márvány u. 15",47.49510762490649,19.023907716231335,Parkolás,Megoldott,False
https://jarokelo.hu/bejelentesek/budapest/177155/gyalazkodo-graffiti,Gyalázkodó graffiti,"XII. kerület, Hegyvidék,  Alkotás u. 44",47.49301987947731,19.024231592970928,Graffiti,Megoldott,False
https://jarokelo.hu/bejelentesek/budapest/177157/rongalt-szekreny,Rongált szekrény,"XII. kerület, Hegyvidék,  Alkotás u. 44",47.49223967205191,19.024314741466295,Graffiti,Megoldásra vár,False
https://jarokelo.hu/bejelentesek/budapest/177161/mehlegelo,Méhlegelő??!!??!!,"II. kerület,  0205-Császár - Komjádi Uszoda",47.519059545979374,19.038862936490887,Parkok és zöldterületek,Megoldott,False
https://jarokelo.hu/bejelentesek/budapest/177163/csatornafedel-allapota,Csatornafedél állapota,"XIII. kerület,  Katona József u 1",47.5120454058779,19.05677565675372,Közművek,Válaszra vár,False
https://jarokelo.hu/bejelentesek/budapest/177164/elhagyott-bicikli-illegalis-reklam,Elhagyott bicikli / illegális reklám,"XIII. kerület,  Katona József u 1",47.51218128007671,19.056648251835863,Kerékpározás,Válaszra vár,False
https://jarokelo.hu/bejelentesek/budapest/177167/buszsav-de-miert-is,"Buszsáv, de miért is?","III. kerület, Óbuda-Békásmegyer,  Czetz János köz",47.57776120472792,19.048891196166274,Forgalomtechnika,Megoldásra vár,False
https://jarokelo.hu/bejelentesek/budapest/176644/jardat-elfoglalo-fa,Járdát elfoglaló fa,"II. kerület,  Zsigmond tér 13",47.523903031833825,19.036438159563644,Parkok és zöldterületek,Válaszra vár,False
https://jarokelo.hu/bejelentesek/budapest/176645/erdos-resz-allapota,Erdős rész állapota,"II. kerület,  Darázs u. 3",47.523921144319985,19.035630814705165,Parkok és zöldterületek,Válaszra vár,False
https://jarokelo.hu/bejelentesek/budapest/176646/korlat-a-kidoles-szelen,Korlát a kidőlés szélén,"II. kerület,  Darázs u. 3",47.52382514807081,19.035705916551482,Forgalomtechnika,Megoldásra vár,False
https://jarokelo.hu/bejelentesek/budapest/176647/rossz-allapotu-fedlap,Rossz állapotú fedlap,"II. kerület,  Alsó Zöldmáli út 1",47.52433466320665,19.036524677585625,Közművek,Megoldott,False
https://jarokelo.hu/bejelentesek/budapest/176648/hianyos-fedlap,Hiányos fedlap,"II. kerület,  Alsó Zöldmáli út 1",47.524464619091084,19.03650657267445,Közművek,Megoldott,False
https://jarokelo.hu/bejelentesek/budapest/176649/rengeteg-szemet,Rengeteg szemét,"II. kerület,  Ürömi u. 2",47.52475169820816,19.035292202567973,Köztisztaság,Megerősítésre vár,False
https://jarokelo.hu/bejelentesek/budapest/176650/ut-tisztitasa-fal-megerositese,"Út tisztítása, fal megerősítése","II. kerület,  Kolozsvári Tamás u. 4/A",47.52559390859452,19.034872436862145,Köztisztaság,Válaszra vár,False
https://jarokelo.hu/bejelentesek/budapest/176651/rongalt-utkozok,Rongált ütközők,"XIII. kerület,  Lehel tér M",47.51730414510509,19.060708942522364,Graffiti,Megoldatlan,False
https://jarokelo.hu/bejelentesek/budapest/176653/rongalt-lampa-es-oszlop,Rongált lámpa és oszlop,"II. kerület,  Margit körút 3",47.51456506574744,19.038229658677626,Graffiti,Megoldásra vár,False
https://jarokelo.hu/bejelentesek/budapest/176654/undoritoan-koszos-megallo,Undorítóan koszos megálló,"III. kerület, Óbuda-Békásmegyer,  Szentlélek tér H",47.53945481051622,19.04572121190937,Köztisztaság,Megoldatlan,False
https://jarokelo.hu/bejelentesek/budapest/176655/utjavitas,Útjavítás,"III. kerület, Óbuda-Békásmegyer,  Szentlélek tér H",47.53936608555423,19.04523975542758,Kátyú,Megoldásra vár,False
https://jarokelo.hu/bejelentesek/budapest/180674/gyanus-jarmu,Gyanús jármű,"III. kerület, Óbuda-Békásmegyer,  Mező u. 7",47.59622071090263,19.043418013018098,Elhagyott jármű,Válaszra vár,False
https://jarokelo.hu/bejelentesek/budapest/180675/komoly-uthiba,Komoly úthiba,"III. kerület, Óbuda-Békásmegyer,  Óbor u. 1",47.59657535712083,19.04386602413812,Kátyú,Válaszra vár,False
https://jarokelo.hu/bejelentesek/budapest/180676/uthiba-a-fedlap-korul,Úthiba a fedlap körül,"III. kerület, Óbuda-Békásmegyer,  Ráby Mátyás u. 43",47.592305656112885,19.048507586848814,Közművek,Válaszra vár,False
https://jarokelo.hu/bejelentesek/budapest/180677/gyanus-jarmu-2,Gyanús jármű 2.,"III. kerület, Óbuda-Békásmegyer,  Nád utca",47.59371837693772,19.047874585569236,Elhagyott jármű,Válaszra vár,False
https://jarokelo.hu/bejelentesek/budapest/180678/lakokocsi-tarolasa,Lakókocsi tárolása,"III. kerület, Óbuda-Békásmegyer,  Gyepes u. 38",47.59368220018421,19.048255459218414,Elhagyott jármű,Válaszra vár,False
https://jarokelo.hu/bejelentesek/budapest/180679/firkas-rongalt-lejaro,Firkás rongált lejáró,"II. kerület,  Margit híd",47.51465571853438,19.038989408557278,Graffiti,Válaszra vár,False
https://jarokelo.hu/bejelentesek/budapest/180680/rongalt-szekrenyek,Rongált szekrények,"II. kerület,  Árpád fejedelem útja 1",47.514724558081475,19.03821156793076,Graffiti,Válaszra vár,False
https://jarokelo.hu/bejelentesek/budapest/180681/graffiftik-a-parkban,Graffiftik a parkban,"II. kerület,  Margit híd",47.5148314403572,19.03919862076807,Graffiti,Válaszra vár,False
https://jarokelo.hu/bejelentesek/budapest/180682/omlott-burkolat,Omlott burkolat,"II. kerület,  Margit híd",47.51484547995742,19.039173810294113,Parkok és zöldterületek,Válaszra vár,False
https://jarokelo.hu/bejelentesek/budapest/180683/rongalt-ivokut,Rongált ivókút,"VII. kerület, Erzsébetváros,  Károly krt. 1",47.49469758016731,19.059984358178273,Közművek,Válaszra vár,False
https://jarokelo.hu/bejelentesek/budapest/180684/agyonrongalt-szekreny,Agyonrongált szekrény,"VII. kerület, Erzsébetváros,  Károly krt. 1",47.49496216904346,19.059681268571357,Közművek,Válaszra vár,False
https://jarokelo.hu/bejelentesek/budapest/180686/kiszaradt-fa,Kiszáradt fa,"I. kerület, Várkerület,  Batthyány tér 1",47.506884287872886,19.039129112641692,Parkok és zöldterületek,Válaszra vár,False
https://jarokelo.hu/bejelentesek/budapest/180625/felig-kidolt-fa-agtoredekek,Félig kidőlt fa + ágtöredékek,"III. kerület, Óbuda-Békásmegyer,  Pince köz",47.601564454926326,19.03587995483077,Parkok és zöldterületek,Válaszra vár,False
https://jarokelo.hu/bejelentesek/budapest/180626/szetesett-padok,Szétesett padok,"III. kerület, Óbuda-Békásmegyer,  Pince köz",47.60158525342919,19.035828992863628,Parkok és zöldterületek,Válaszra vár,False
https://jarokelo.hu/bejelentesek/budapest/180627/regi-rozsdas-reklamtabla,"Régi, rozsdás reklámtábla","III. kerület, Óbuda-Békásmegyer,  Kőbánya u. 104",47.601684724415435,19.03587324930878,Egyéb,Válaszra vár,False
https://jarokelo.hu/bejelentesek/budapest/180628/kiegett-lampak-elhagyott-burkolati-elemek-a-lepcson,"Kiégett lámpák, elhagyott burkolati elemek a lépcsőn","I. kerület, Várkerület,  Batthyány tér H",47.506594771873566,19.038936650281904,Egyéb,Válaszra vár,False
https://jarokelo.hu/bejelentesek/budapest/180629/szemet-a-jatszoteri-padon,Szemét a játszótéri padon,"II. kerület,  Nagy Imre tér 1",47.50864574206306,19.037256246354982,Köztisztaság,Válaszra vár,False
https://jarokelo.hu/bejelentesek/budapest/180630/traffipax-van-de-az-ut-bezzeg-pocsek,"Traffipax van, de az út bezzeg pocsék","III. kerület, Óbuda-Békásmegyer,  Pünkösdfürdő u. 56",47.59533092801102,19.0534308296037,Kátyú,Válaszra vár,False
https://jarokelo.hu/bejelentesek/budapest/180631/rengeteg-zoldhulladek,Rengeteg zöldhulladék,"III. kerület, Óbuda-Békásmegyer,  Pünkösdfürdő u. 56",47.59544849866376,19.053209547341552,Parkok és zöldterületek,Válaszra vár,False
https://jarokelo.hu/bejelentesek/budapest/180632/borzaszto-allapotu-ut,Borzasztó állapotú út,"III. kerület, Óbuda-Békásmegyer,  Békásmegyer H",47.598068446965165,19.054075900835727,Kátyú,Válaszra vár,False
https://jarokelo.hu/bejelentesek/budapest/180633/rengeteg-olaj-a-buszmegalloban,Rengeteg olaj a buszmegállóban,"III. kerület, Óbuda-Békásmegyer,  Békásmegyer H",47.598002429859726,19.054004822302606,Köztisztaság,Válaszra vár,False
https://jarokelo.hu/bejelentesek/budapest/180634/utanfuto-tarolasa,Utánfutó tárolása,"III. kerület, Óbuda-Békásmegyer,  Ezüsthegy u. 2",47.59815055547045,19.045198473371933,Elhagyott jármű,Válaszra vár,False
https://jarokelo.hu/bejelentesek/budapest/180224/szemet-a-bokrok-kozott,Szemét a bokrok között,"III. kerület, Óbuda-Békásmegyer,  Békásmegyer H",47.59828099517241,19.055737269460668,Köztisztaság,Válaszra vár,False
https://jarokelo.hu/bejelentesek/budapest/180225/agtoredekek-mindenhol,Ágtöredékek mindenhol,"III. kerület, Óbuda-Békásmegyer,  Gyűrű u. 12",47.59912745026652,19.06027422595892,Köztisztaság,Válaszra vár,False
https://jarokelo.hu/bejelentesek/budapest/179937/olajfolt,Olajfolt,"IV. kerület, Újpest,  Bőrfestő u. 5",47.5885901,19.1151518,Köztisztaság,Megoldott,False
https://jarokelo.hu/bejelentesek/budapest/179672/tabla-a-kidoles-szelen,Tábla a kidőlés szélén,"II. kerület,  Árpád fejedelem útja",47.51532825893145,19.03979205949428,Forgalomtechnika,Megoldásra vár,False
https://jarokelo.hu/bejelentesek/budapest/179674/hol-vannak-a-biciklik,Hol vannak a biciklik?,"II. kerület,  0209-Margit körút - Tölgyfa utca",47.514082833208924,19.03684286400518,Kerékpározás,Válaszra vár,False
https://jarokelo.hu/bejelentesek/budapest/179679/koszos-aluljaro,Koszos aluljáró,"I. kerület, Várkerület,  Batthyány tér M+H",47.50618494019224,19.039445275407495,Köztisztaság,Megoldásra vár,False
https://jarokelo.hu/bejelentesek/budapest/179681/koszos-metromegallo,Koszos metrómegálló,"V. kerület, Belváros-Lipótváros,  Astoria",47.49417530355948,19.0598655425649,Graffiti,Válaszra vár,False
https://jarokelo.hu/bejelentesek/budapest/179682/rongalt-parkoloautomata,Rongált parkolóautomata,"VI. kerület, Terézváros,  Rippl Rónai utca 42",47.5164803478094,19.071436339344025,Parkolás,Megoldott,False
https://jarokelo.hu/bejelentesek/budapest/179683/tormelek-a-fak-toveben,Törmelék a fák tövében,"VI. kerület, Terézváros,  Podmaniczky u. 111",47.51670859697697,19.0718306240214,Köztisztaság,Válaszra vár,False
https://jarokelo.hu/bejelentesek/budapest/179684/rengeteg-szemet-kozteruleten,Rengeteg szemét közterületen,"III. kerület, Óbuda-Békásmegyer,  Kőbánya u. 21",47.59871497417924,19.042516451565888,Köztisztaság,Válaszra vár,False
https://jarokelo.hu/bejelentesek/budapest/179390/szemetes-osveny-kiserdoben,Szemetes ösvény kiserdőben,"X. kerület, Kőbánya,  Ceglédi út 30",47.46310171,19.1242796,Köztisztaság,Megoldott,False
https://jarokelo.hu/bejelentesek/budapest/179429/sebesseg-tabla-kerdes-es-veszelyes-pontok,Sebesség tábla kérdés és veszélyes pontok,"IX. kerület, Ferencváros,  Kvassay Jenő út 3",47.446334,19.071767,Forgalomtechnika,Megoldásra vár,False
https://jarokelo.hu/bejelentesek/budapest/178802/gyanus-jarmu-1,Gyanús jármű 1.,"III. kerület, Óbuda-Békásmegyer,  Füst Milán u. 8",47.59900746915208,19.058713309761472,Elhagyott jármű,Válaszra vár,False
https://jarokelo.hu/bejelentesek/budapest/178803/lomis-tabla-a-faban,Lomis tábla a fában,"III. kerület, Óbuda-Békásmegyer,  Füst Milán u. 6",47.59876375242472,19.058562435544694,Köztisztaság,Válaszra vár,False
https://jarokelo.hu/bejelentesek/budapest/178804/gyanus-jarmu-2,Gyanús jármű 2.,"III. kerület, Óbuda-Békásmegyer,  Füst Milán u. 2",47.59856796432331,19.058445759449057,Elhagyott jármű,Válaszra vár,False
https://jarokelo.hu/bejelentesek/budapest/178805/gyanus-jarmu-3,Gyanús jármű 3.,"III. kerület, Óbuda-Békásmegyer,  Füst Milán u. 1",47.598927888304395,19.05956893447567,Elhagyott jármű,Megoldott,False
https://jarokelo.hu/bejelentesek/budapest/178806/kidolt-fatamasztek,Kidőlt fatámaszték,"III. kerület, Óbuda-Békásmegyer,  Madzsar József u. 2",47.59896587009067,19.056795530363306,Parkok és zöldterületek,Válaszra vár,False
https://jarokelo.hu/bejelentesek/budapest/178807/tabla-a-kidoles-szelen,Tábla a kidőlés szélén,"III. kerület, Óbuda-Békásmegyer,  Heltai Jenő tér 7",47.598641215385165,19.056330167099976,Forgalomtechnika,Megoldásra vár,False
https://jarokelo.hu/bejelentesek/budapest/178808/aluljaro-rossz-allapota,Aluljáró rossz állapota,"III. kerület, Óbuda-Békásmegyer,  Békásmegyer H",47.59815196870147,19.055750809966263,Köztisztaság,Megoldott,False
https://jarokelo.hu/bejelentesek/budapest/178809/tonkretett-park,Tönkretett park,"III. kerület, Óbuda-Békásmegyer,  Füst Milán u. 10",47.59922179424571,19.058249287636194,Parkok és zöldterületek,Válaszra vár,False
https://jarokelo.hu/bejelentesek/budapest/178810/elhagyatott-tabla,Elhagyatott tÃĄbla,"III. kerÃžlet, Ãbuda-BÃĐkÃĄsmegyer,  KirÃĄlyok Ãštja 265",47.59423377852321,19.066886682883954,EgyÃĐb,Megoldott,False
https://jarokelo.hu/bejelentesek/budapest/178811/hulladek,Hulladék,"III. kerület, Óbuda-Békásmegyer,  Gyűrű u. 24",47.59830618921884,19.06127140450354,Köztisztaság,Válaszra vár,False
